[
  {
    "name": "Afghanistan",
    "dial_code": "+93",
    "code": "AF"
  },
  {
    "name": "Aland Islands",
    "dial_code": "+358",
    "code": "AX"
  },
  {
    "name": "Albania",
    "dial_code": "+355",
    "code": "AL"
  },
  {
    "name": "Algeria",
    "dial_code": "+213",
    "code": "DZ"
  },
  {
    "name": "AmericanSamoa",
    "dial_code": "+1684",
    "code": "AS"
  },
  {
    "name": "Andorra",
    "dial_code": "+376",
    "code": "AD"
  },
  {
    "name": "Angola",
    "dial_code": "+244",
    "code": "AO"
  },
  {
    "name": "Anguilla",
    "dial_code": "+1264",
    "code": "AI"
  },
  {
    "name": "Antarctica",
    "dial_code": "+672",
    "code": "AQ"
  },
  {
    "name": "Antigua and Barbuda",
    "dial_code": "+1268",
    "code": "AG"
  },
  {
    "name": "Argentina",
    "dial_code": "+54",
    "code": "AR"
  },
  {
    "name": "Armenia",
    "dial_code": "+374",
    "code": "AM"
  },
  {
    "name": "Aruba",
    "dial_code": "+297",
    "code": "AW"
  },
  {
    "name": "Australia",
    "dial_code": "+61",
    "code": "AU"
  },
  {
    "name": "Austria",
    "dial_code": "+43",
    "code": "AT"
  },
  {
    "name": "Azerbaijan",
    "dial_code": "+994",
    "code": "AZ"
  },
  {
    "name": "Bahamas",
    "dial_code": "+1242",
    "code": "BS"
  },
  {
    "name": "Bahrain",
    "dial_code": "+973",
    "code": "BH"
  },
  {
    "name": "Bangladesh",
    "dial_code": "+880",
    "code": "BD"
  },
  {
    "name": "Barbados",
    "dial_code": "+1246",
    "code": "BB"
  },
  {
    "name": "Belarus",
    "dial_code": "+375",
    "code": "BY"
  }
]
